      2.10          N: GNSS NAV DATA                        RINEX VERSION / TYPE
fic2rin                                 02/16/2020 00:20:21 PGM / RUN BY / DATE
                                                            END OF HEADER
30 20  2 15  8  0  0.0-1.535816118121e-04-8.981260180008e-12 0.000000000000e+00
    7.400000000000e+01 9.175000000000e+01 4.846273295307e-09-2.678435866211e+00
    4.626810550690e-06 4.241624730639e-03 9.413808584213e-06 5.153694576263e+03
    5.472000000000e+05 1.862645149231e-09 1.838634395143e+00 1.862645149231e-09
    9.387593049674e-01 1.873750000000e+02-2.933122460484e+00-8.203913154484e-09
    7.250302004181e-11 1.000000000000e+00 2.092000000000e+03 0.000000000000e+00
    2.400000000000e+00 0.000000000000e+00 3.725290298462e-09 7.400000000000e+01
    5.400000000000e+05 4.000000000000e+00
25 20  2 15  8  0  0.0-1.307670027018e-05 1.364242052659e-12 0.000000000000e+00
    6.900000000000e+01 4.331250000000e+01 4.422327064816e-09 2.668133866897e+00
    2.160668373108e-06 9.099778602831e-03 4.801899194717e-06 5.153592870712e+03
    5.472000000000e+05-2.607703208923e-08 2.851454426728e+00-1.043081283569e-07
    9.670516607833e-01 2.896562500000e+02 8.968847393294e-01-8.147482232481e-09
    6.285976121851e-11 1.000000000000e+00 2.092000000000e+03 0.000000000000e+00
    3.400000000000e+00 0.000000000000e+00 5.587935447693e-09 6.900000000000e+01
    5.400000000000e+05 4.000000000000e+00
21 20  2 15  8  0  0.0-4.084268584847e-05 5.343281372916e-12 0.000000000000e+00
    6.300000000000e+01-3.187500000000e+01 4.654836749778e-09 2.486767660289e+00
   -1.654028892517e-06 2.487520151772e-02 8.305534720421e-06 5.153563234329e+03
    5.472000000000e+05 3.725290298462e-07-1.404130926912e+00-9.126961231232e-08
    9.516095773757e-01 2.114375000000e+02-1.364028881095e+00-7.757823144473e-09
    1.185763677531e-10 1.000000000000e+00 2.092000000000e+03 0.000000000000e+00
    2.400000000000e+00 0.000000000000e+00-1.024454832077e-08 6.300000000000e+01
    5.400000000000e+05 4.000000000000e+00
32 20  2 15  8  0  0.0 2.127666957676e-04 9.890754881781e-12 0.000000000000e+00
    9.200000000000e+01-2.462500000000e+01 4.736268713174e-09 9.855539669301e-01
   -1.179054379463e-06 3.559367149137e-03 9.194016456604e-06 5.153681276321e+03
    5.472000000000e+05-4.842877388000e-08 7.474897954246e-01 2.421438694000e-08
    9.569498822894e-01 2.017187500000e+02-2.524985018504e+00-8.160697068646e-09
   -3.760870941085e-10 1.000000000000e+00 2.092000000000e+03 0.000000000000e+00
    2.400000000000e+00 0.000000000000e+00 4.656612873077e-10 9.200000000000e+01
    5.400000000000e+05 4.000000000000e+00
20 20  2 15  8  0  0.0 5.278666503727e-04 0.000000000000e+00 0.000000000000e+00
    5.900000000000e+01-8.562500000000e+00 5.426654613375e-09-2.456334879773e+00
   -3.390014171600e-07 5.055546527728e-03 6.645917892456e-06 5.153625217438e+03
    5.472000000000e+05-1.024454832077e-07-4.218908307722e-01 3.725290298462e-08
    9.332359524291e-01 2.380625000000e+02 2.594363718234e+00-8.471424297397e-09
    2.007226466182e-10 1.000000000000e+00 2.092000000000e+03 0.000000000000e+00
    2.400000000000e+00 0.000000000000e+00-8.847564458847e-09 5.900000000000e+01
    5.400000000000e+05 4.000000000000e+00
18 20  2 15  8  0  0.0 2.672895789146e-06 1.932676241267e-12 0.000000000000e+00
    3.900000000000e+01-5.125000000000e+00 4.594834250433e-09-2.253346550849e+00
   -2.831220626831e-07 1.566520996857e-02 8.814036846161e-06 5.153639427185e+03
    5.472000000000e+05 2.216547727585e-07-1.393541707040e+00 3.539025783539e-08
    9.572295527274e-01 2.042187500000e+02 1.454451435032e+00-7.857112994580e-09
    3.546576300567e-10 1.000000000000e+00 2.092000000000e+03 0.000000000000e+00
    2.400000000000e+00 6.300000000000e+01-5.587935447693e-09 3.900000000000e+01
    5.400000000000e+05 4.000000000000e+00
 4 20  2 15  8  0  0.0-4.909699782729e-05-5.343281372916e-12 0.000000000000e+00
    1.050000000000e+02-1.840625000000e+01 4.516973864378e-09-6.895832992723e-01
   -1.156702637672e-06 5.315936869010e-04 9.695068001747e-06 5.153719781876e+03
    5.472000000000e+05 2.048909664154e-08 7.866662485840e-01 4.842877388000e-08
    9.600722541773e-01 1.919687500000e+02-2.717688127785e+00-7.971760627257e-09
   -3.764442518427e-10 1.000000000000e+00 2.092000000000e+03 0.000000000000e+00
    2.400000000000e+00 0.000000000000e+00-4.190951585770e-09 6.170000000000e+02
    5.400600000000e+05 4.000000000000e+00
25 20  2 15  7 59 44.0-1.307670027018e-05 1.364242052659e-12 0.000000000000e+00
    3.100000000000e+01 4.331250000000e+01 4.422327064816e-09 2.665799352466e+00
    2.160668373108e-06 9.099776623771e-03 4.801899194717e-06 5.153592870712e+03
    5.471840000000e+05-2.607703208923e-08 2.851454549613e+00-1.043081283569e-07
    9.670516724867e-01 2.896562500000e+02 8.968854225121e-01-8.147482232481e-09
    6.321691895271e-11 1.000000000000e+00 2.092000000000e+03 0.000000000000e+00
    2.400000000000e+00 0.000000000000e+00 5.587935447693e-09 3.100000000000e+01
    5.430300000000e+05 4.000000000000e+00
 4 20  2 15  9 14 40.0-4.912074655294e-05-5.343281372916e-12 0.000000000000e+00
    1.060000000000e+02-1.812500000000e+01 4.575190575052e-09-3.547612037424e-02
   -1.113861799240e-06 5.324372323230e-04 9.166076779366e-06 5.153721464157e+03
    5.516800000000e+05-8.195638656616e-08 7.866303061497e-01 2.235174179077e-08
    9.600702134066e-01 1.990312500000e+02-2.718367073917e+00-8.053906906122e-09
   -3.710868858297e-10 1.000000000000e+00 2.092000000000e+03 0.000000000000e+00
    2.400000000000e+00 0.000000000000e+00-4.190951585770e-09 6.180000000000e+02
    5.445600000000e+05 4.000000000000e+00
25 20  2 15  9 59 44.0-1.306692138314e-05 1.364242052659e-12 0.000000000000e+00
    3.200000000000e+01 4.125000000000e+01 4.462685888780e-09-2.567197123230e+00
    2.121552824974e-06 9.100303170271e-03 4.518777132034e-06 5.153591856003e+03
    5.543840000000e+05 1.117587089539e-08 2.851395759324e+00-9.313225746155e-08
    9.670521508609e-01 2.958125000000e+02 8.969262686478e-01-8.158196964507e-09
    8.428922527028e-11 1.000000000000e+00 2.092000000000e+03 0.000000000000e+00
    2.400000000000e+00 0.000000000000e+00 5.587935447693e-09 3.200000000000e+01
    5.472000000000e+05 4.000000000000e+00
 1 20  2 15 10  0  0.0-2.956339158118e-04-1.216449163621e-11 0.000000000000e+00
    5.100000000000e+01-2.190625000000e+01 4.150172871358e-09-8.891100568084e-01
   -1.026317477226e-06 9.375599795021e-03 8.629634976387e-06 5.153637636185e+03
    5.544000000000e+05 1.434236764908e-07-1.332780866073e+00 1.210719347000e-07
    9.786736949677e-01 2.235312500000e+02 7.539365740388e-01-7.963903157104e-09
    2.803688213439e-10 1.000000000000e+00 2.092000000000e+03 0.000000000000e+00
    2.400000000000e+00 0.000000000000e+00 5.587935447693e-09 5.100000000000e+01
    5.472000000000e+05 4.000000000000e+00
 2 20  2 15 10  0  0.0-4.051453433931e-04-6.934897101019e-12 0.000000000000e+00
    1.050000000000e+02-9.312500000000e+00 4.693766942805e-09-6.179519046572e-01
   -4.991888999939e-07 1.980878843460e-02 1.015514135361e-05 5.153638721466e+03
    5.544000000000e+05-2.477318048477e-07-1.406992668241e+00 1.881271600723e-07
    9.577066951623e-01 1.905312500000e+02-1.659999790134e+00-8.485353449031e-09
    4.264463346301e-10 1.000000000000e+00 2.092000000000e+03 0.000000000000e+00
    2.400000000000e+00 0.000000000000e+00-1.769512891769e-08 1.050000000000e+02
    5.472000000000e+05 4.000000000000e+00
 5 20  2 15 10  0  0.0-7.629394531250e-06-5.684341886081e-13 0.000000000000e+00
    3.300000000000e+01-1.871875000000e+01 5.178072830375e-09 2.003065351506e+00
   -9.760260581970e-07 5.767836351879e-03 6.509944796562e-06 5.153593990326e+03
    5.544000000000e+05-1.378357410431e-07-3.219365229084e-01-7.450580596924e-08
    9.520253986735e-01 2.515312500000e+02 7.954606215792e-01-8.337490147073e-09
    1.767930784271e-10 1.000000000000e+00 2.092000000000e+03 0.000000000000e+00
    2.400000000000e+00 0.000000000000e+00-1.117587089539e-08 3.300000000000e+01
    5.472000000000e+05 4.000000000000e+00
 3 20  2 15 10  0  0.0-9.503588080406e-05-8.867573342286e-12 0.000000000000e+00
    6.800000000000e+01-1.418750000000e+01 4.824129515787e-09-2.016633921080e+00
   -6.631016731262e-07 2.626077737659e-03 6.709247827530e-06 5.153610691071e+03
    5.544000000000e+05 8.009374141693e-08-2.914613133793e-01 2.793967723846e-08
    9.651479859676e-01 2.539375000000e+02 7.340251500881e-01-8.217127990649e-09
    1.935794919343e-10 1.000000000000e+00 2.092000000000e+03 0.000000000000e+00
    2.400000000000e+00 0.000000000000e+00 1.862645149231e-09 6.800000000000e+01
    5.472000000000e+05 4.000000000000e+00
11 20  2 15 10  0  0.0-3.606057725847e-04 1.080024958355e-11 0.000000000000e+00
    2.500000000000e+01-3.068750000000e+01 5.573089284396e-09-1.411776544948e+00
   -1.484528183937e-06 1.583539647982e-02 8.465722203255e-06 5.152871543884e+03
    5.544000000000e+05-3.501772880554e-07-1.800898954327e+00 1.415610313416e-07
    9.117851392823e-01 1.962500000000e+02 1.981465866384e+00-8.788937523097e-09
    1.675069773380e-10 1.000000000000e+00 2.092000000000e+03 0.000000000000e+00
    2.400000000000e+00 0.000000000000e+00-1.257285475731e-08 2.500000000000e+01
    5.472000000000e+05 4.000000000000e+00
 7 20  2 15 10  0  0.0-2.149501815438e-04-8.412825991400e-12 0.000000000000e+00
    9.000000000000e+01 7.140625000000e+01 4.535903224290e-09-1.624284263216e+00
    3.557652235031e-06 1.332171063405e-02 8.840113878250e-06 5.153695053101e+03
    5.544000000000e+05 2.253800630569e-07 1.814353062265e+00-1.974403858185e-07
    9.534047387800e-01 2.047812500000e+02-2.416014845996e+00-7.907829392835e-09
   -6.428839215530e-12 1.000000000000e+00 2.092000000000e+03 0.000000000000e+00
    3.400000000000e+00 0.000000000000e+00-1.117587089539e-08 9.000000000000e+01
    5.472000000000e+05 4.000000000000e+00
